{
"type": "FeatureCollection",
"name": "ri_shapefile_test",
"crs": { "type": "name", "properties": { "name": "urn:ogc:def:crs:OGC:1.3:CRS84" } },
"features": [
{ "type": "Feature", "properties": { }, "geometry": { "type": "MultiPolygon", "coordinates": [ [ [ [ -71.790971073827251, 41.184101540001606 ], [ -71.854461160783302, 41.25010031479345 ], [ -71.858512158078256, 41.253697309920213 ], [ -71.879846160177181, 41.276246288272944 ], [ -71.907257169509279, 41.304483259965082 ], [ -71.901657219655846, 41.312683280942579 ], [ -71.90030023691277, 41.316046287521836 ], [ -71.893104303137989, 41.327373315299553 ], [ -71.89206631657683, 41.33007532046517 ], [ -71.889291321490248, 41.328975325221236 ], [ -71.882130332664005, 41.325673336997617 ], [ -71.874512343844415, 41.32186834922009 ], [ -71.866537360582612, 41.319185363435857 ], [ -71.857457396252144, 41.320789384664458 ], [ -71.851922427907027, 41.324664400727634 ], [ -71.847708458631374, 41.329604415095773 ], [ -71.844610472509132, 41.330730422953636 ], [ -71.837279510779354, 41.335068443342273 ], [ -71.829364560474275, 41.342432468218199 ], [ -71.829778571719956, 41.346229471409508 ], [ -71.831302583747771, 41.351295473588991 ], [ -71.836043578080904, 41.353988466338549 ], [ -71.836767579589946, 41.355103465988741 ], [ -71.837285583385437, 41.356708466607024 ], [ -71.837806589470759, 41.358994467951867 ], [ -71.837872593137121, 41.360145469048987 ], [ -71.837632611846985, 41.365499475321727 ], [ -71.837033616285012, 41.366286477448348 ], [ -71.83277563863318, 41.3691694896456 ], [ -71.832068643043073, 41.369863491901668 ], [ -71.83184364530868, 41.370344492899129 ], [ -71.831651652124023, 41.372226495331354 ], [ -71.832698659280325, 41.375309496408605 ], [ -71.832655661205465, 41.3758504970818 ], [ -71.832133666752128, 41.37705949949531 ], [ -71.830796674932287, 41.378348503733932 ], [ -71.830636676802939, 41.378772504530886 ], [ -71.830830677447011, 41.379137504508968 ], [ -71.832081677133672, 41.380139502915895 ], [ -71.83352668001568, 41.382264502116506 ], [ -71.833394685611964, 41.38383050408131 ], [ -71.83259069642142, 41.386385508542034 ], [ -71.832654698801875, 41.387156509234117 ], [ -71.833129699718, 41.387839508955324 ], [ -71.834556700126896, 41.389181507355431 ], [ -71.83570769909889, 41.389852505623139 ], [ -71.838117694616798, 41.390554501240842 ], [ -71.838748694511295, 41.391054500433789 ], [ -71.840607697924, 41.393622499235519 ], [ -71.841721698185353, 41.394625497941519 ], [ -71.842208699376997, 41.395380497716801 ], [ -71.842243704359376, 41.396879499256286 ], [ -71.841067717039593, 41.399658504753035 ], [ -71.841552727161556, 41.403046507367705 ], [ -71.843255727282383, 41.40446150526612 ], [ -71.843590729320539, 41.405331505490068 ], [ -71.842934737291799, 41.407151508846269 ], [ -71.842351742042311, 41.408084511091523 ], [ -71.842626746969572, 41.409757512307934 ], [ -71.842425749218862, 41.41026051327718 ], [ -71.842028751802687, 41.410706514601934 ], [ -71.840439758881743, 41.411532518871169 ], [ -71.839696763210185, 41.412222521194138 ], [ -71.839257764956841, 41.412390522308634 ], [ -71.837889768946837, 41.412483525318223 ], [ -71.836882770798155, 41.412228527185675 ], [ -71.835796773732156, 41.412232529499782 ], [ -71.834657774675321, 41.411597531239622 ], [ -71.834106776109422, 41.411582532395485 ], [ -71.827901801886611, 41.414334548548361 ], [ -71.825383809779453, 41.414687554281528 ], [ -71.824383814983122, 41.415461557238281 ], [ -71.824145819876463, 41.416764559142187 ], [ -71.823730822671408, 41.417282560580112 ], [ -71.821764831033846, 41.418248565795253 ], [ -71.820329838512393, 41.419382570061089 ], [ -71.818087845951567, 41.419852575329692 ], [ -71.816903849316802, 41.419927577926309 ], [ -71.814888853221262, 41.419487581737464 ], [ -71.812899858208738, 41.419404585875881 ], [ -71.812149859580828, 41.419213587265467 ], [ -71.808051864639083, 41.417387594022671 ], [ -71.806811865680359, 41.41667359589534 ], [ -71.803683876363664, 41.417428603351844 ], [ -71.803252877129239, 41.417307604138777 ], [ -71.802064876058665, 41.415953605218142 ], [ -71.801438876455137, 41.415545606113383 ], [ -71.80073887828479, 41.415533607588884 ], [ -71.799512882501332, 41.415838610521142 ], [ -71.798119888800571, 41.416674614374941 ], [ -71.797744889961777, 41.416727615228723 ], [ -71.796296001030896, 41.451516655420285 ], [ -71.795647028666409, 41.459984665827115 ], [ -71.794052118067555, 41.487902698970778 ], [ -71.792485134088039, 41.519772676706282 ], [ -71.791146095384846, 41.552781615066451 ], [ -71.790978084668865, 41.561551598282591 ], [ -71.788213012235602, 41.621017486964078 ], [ -71.787238967506298, 41.656111419705894 ], [ -71.787842949694905, 41.669817391872471 ], [ -71.789702880189509, 41.724563282002514 ], [ -71.790102857233194, 41.742935245573989 ], [ -71.790553849119419, 41.750117231093952 ], [ -71.79106592325914, 41.770202211061473 ], [ -71.792076014989945, 41.795060185792806 ], [ -71.792894079244462, 41.812521167903604 ], [ -71.79312708693746, 41.814603165599941 ], [ -71.793440127356092, 41.825637154550158 ], [ -71.79468023253429, 41.854409125198558 ], [ -71.795863317231209, 41.877688101217736 ], [ -71.797883510083977, 41.931011047141297 ], [ -71.798068592232838, 41.953730024954297 ], [ -71.798188592676581, 41.953875024661443 ], [ -71.798298606152912, 41.95762002090278 ], [ -71.799188766030142, 42.008052980801402 ], [ -71.771427794308394, 42.009481014307461 ], [ -71.527702599675962, 42.015095932641017 ], [ -71.49825957819489, 42.017273034092483 ], [ -71.446800680691169, 42.017900023700633 ], [ -71.441298691755435, 42.018099021971487 ], [ -71.396578780677444, 42.018749012268231 ], [ -71.381401810691145, 42.018799009752513 ], [ -71.381505797563122, 42.00002209929319 ], [ -71.381299774107404, 41.985085068202771 ], [ -71.381463627391767, 41.893546876923835 ], [ -71.338787708326038, 41.898593884962587 ], [ -71.340890675636857, 41.881804850270349 ], [ -71.334040653240834, 41.86260481014962 ], [ -71.342550608713637, 41.844656773297572 ], [ -71.335417603841037, 41.835645754363625 ], [ -71.345198575476104, 41.827676738155844 ], [ -71.347545564437894, 41.82324672902967 ], [ -71.339332550830264, 41.808527698277551 ], [ -71.339379549983548, 41.80807869734781 ], [ -71.339195550089698, 41.807990697161152 ], [ -71.33922054949636, 41.807669696496269 ], [ -71.339428548611039, 41.80732869579407 ], [ -71.339420547588134, 41.806733694560364 ], [ -71.339675546547383, 41.806340693751302 ], [ -71.339088546402095, 41.805783692583546 ], [ -71.339231545118565, 41.805160691295185 ], [ -71.339907541991991, 41.803904688705813 ], [ -71.340185541422059, 41.803799688494024 ], [ -71.340511539973676, 41.803226687312808 ], [ -71.340597538778738, 41.802606686028973 ], [ -71.340339538752275, 41.80238468556329 ], [ -71.340745536957172, 41.801674684099389 ], [ -71.340643536377314, 41.801258683234671 ], [ -71.340808535789805, 41.801051682808769 ], [ -71.340596535819898, 41.800899682489295 ], [ -71.340635535119105, 41.800526681716619 ], [ -71.340801534017487, 41.800023680676865 ], [ -71.341201533033427, 41.799774680168383 ], [ -71.340777531238814, 41.798401677312874 ], [ -71.340043531927989, 41.798216676915239 ], [ -71.339842531391795, 41.797748675941094 ], [ -71.340360530350239, 41.797558675556914 ], [ -71.34048152927339, 41.797033674470562 ], [ -71.340103529899622, 41.797095674592086 ], [ -71.340224529126203, 41.796745673868621 ], [ -71.340097529105904, 41.796633673634055 ], [ -71.339157529881348, 41.796338673005167 ], [ -71.338838529617078, 41.795935672163935 ], [ -71.337913530516772, 41.795725671711892 ], [ -71.337887530285613, 41.795572671394318 ], [ -71.337223531039825, 41.795484671199993 ], [ -71.336875531969582, 41.795744671732486 ], [ -71.336463532510365, 41.7957316716981 ], [ -71.336191532487163, 41.795505671224937 ], [ -71.335610533199059, 41.79545867111711 ], [ -71.335304532864086, 41.795028670220859 ], [ -71.334645533425373, 41.794835669809359 ], [ -71.334421533053813, 41.794449669005914 ], [ -71.334112533368028, 41.794388668874149 ], [ -71.334229532955774, 41.794244668577974 ], [ -71.334154532520827, 41.793938667942903 ], [ -71.333678532896684, 41.793783667613646 ], [ -71.333917532195514, 41.793569667174602 ], [ -71.333442532484938, 41.793366666746046 ], [ -71.333572532002393, 41.793192666387945 ], [ -71.333112532367338, 41.793044666073634 ], [ -71.333155531478795, 41.792572665097012 ], [ -71.332196529970147, 41.79097766177874 ], [ -71.332497529329004, 41.79084466150826 ], [ -71.332480529019165, 41.790655661116681 ], [ -71.332811528441795, 41.79058166096879 ], [ -71.332743527792616, 41.790160660096006 ], [ -71.331603528385372, 41.78962465896835 ], [ -71.331534527940306, 41.789319658335906 ], [ -71.331035529046588, 41.789565658837326 ], [ -71.331059528193208, 41.789100657875224 ], [ -71.330514528953174, 41.789115657897838 ], [ -71.330235528918408, 41.788883657413393 ], [ -71.330415528271473, 41.788654656942235 ], [ -71.329457528980228, 41.788327656250949 ], [ -71.329652527675592, 41.787738655035092 ], [ -71.329627526434436, 41.787018653544855 ], [ -71.33039152251753, 41.785381650168134 ], [ -71.330232521557093, 41.784718648793827 ], [ -71.329869521327225, 41.784315647954884 ], [ -71.329854519738575, 41.783406646073622 ], [ -71.329663519409593, 41.783077645390307 ], [ -71.329896518302647, 41.782626644460059 ], [ -71.329803517385159, 41.782038643242089 ], [ -71.329582517319764, 41.781836642821297 ], [ -71.329418517621562, 41.781884642918548 ], [ -71.329315519013647, 41.782593644384285 ], [ -71.329096519526971, 41.782719644642164 ], [ -71.328787517512396, 41.781352641809917 ], [ -71.328472516760826, 41.780694640444729 ], [ -71.261067548470209, 41.752082581196191 ], [ -71.226254565363163, 41.712553590778185 ], [ -71.222471564297862, 41.70767959197164 ], [ -71.195479546699133, 41.675090592850694 ], [ -71.175784514705668, 41.671493598407885 ], [ -71.176120516956544, 41.668248596030409 ], [ -71.132557441057543, 41.660363603115734 ], [ -71.134354447285972, 41.644047585679289 ], [ -71.135307452071928, 41.628488569520897 ], [ -71.140185463308555, 41.623869564826435 ], [ -71.14195846980229, 41.612533553802265 ], [ -71.140308467889753, 41.604850546038001 ], [ -71.138346463668626, 41.603676544528511 ], [ -71.131620449855788, 41.593716532778011 ], [ -71.126819443122784, 41.554975488955641 ], [ -71.122437434178948, 41.522075449078478 ], [ -71.120617428695013, 41.497901416519923 ], [ -71.119874423752208, 41.494604406944688 ], [ -71.12111642613867, 41.492787403296866 ], [ -71.11640440510692, 41.484568376918304 ], [ -71.088571282913122, 41.431315221483494 ], [ -71.103980320375058, 41.421957205507105 ], [ -71.11932235725574, 41.413321189269361 ], [ -71.124594370636871, 41.411474186268116 ], [ -71.249960682132794, 41.377713108931744 ], [ -71.374495548324845, 41.33901083122749 ], [ -71.479876490439892, 41.312598586203443 ], [ -71.482996489890866, 41.310973574335058 ], [ -71.489356488285793, 41.308801555625664 ], [ -71.494805486799564, 41.307354541540832 ], [ -71.506610464116974, 41.307355563148597 ], [ -71.512060446911065, 41.308079589885594 ], [ -71.526594401992867, 41.308803655030815 ], [ -71.543851348712678, 41.312597744630821 ], [ -71.556933309598847, 41.316253814380765 ], [ -71.575253256936236, 41.32095490790978 ], [ -71.585067226603982, 41.316774932313379 ], [ -71.598151185281225, 41.312593971687676 ], [ -71.624504099258928, 41.305997061807098 ], [ -71.624504099407318, 41.3061430622516 ], [ -71.632188074124315, 41.304842091367505 ], [ -71.636129059848585, 41.303157103512326 ], [ -71.651523004797014, 41.298362157642444 ], [ -71.656975985144186, 41.296897177968646 ], [ -71.659564976415538, 41.296653188831812 ], [ -71.666318947909474, 41.292487208857281 ], [ -71.672594921497492, 41.289079229321764 ], [ -71.685860870288693, 41.285390282093459 ], [ -71.695042833662868, 41.282647319161519 ], [ -71.705743792863416, 41.280739365633906 ], [ -71.7116607721088, 41.280601393133871 ], [ -71.719993744587299, 41.281149433043602 ], [ -71.72343472903907, 41.27961744688379 ], [ -71.728968705733465, 41.277964470619501 ], [ -71.73283468946957, 41.276876487461692 ], [ -71.739559662120456, 41.275449517645576 ], [ -71.747044634405015, 41.274974552826528 ], [ -71.749508625761109, 41.27499956462551 ], [ -71.765811564817511, 41.274245532068889 ], [ -71.77842952180329, 41.275111505773026 ], [ -71.791479465754392, 41.272165474487835 ], [ -71.791479398463252, 41.250100450973171 ], [ -71.790971073827251, 41.184101540001606 ] ] ], [ [ [ -71.476925110731131, 41.168156481405489 ], [ -71.476877075313553, 41.161170498318718 ], [ -71.477024047257089, 41.15565651152702 ], [ -71.479562007132571, 41.148054528188652 ], [ -71.488272911745923, 41.130540566401926 ], [ -71.491431881416773, 41.125103578604389 ], [ -71.494678863892688, 41.122191584577166 ], [ -71.499495835704266, 41.117491594742482 ], [ -71.501886817523229, 41.115540608156692 ], [ -71.508092771998719, 41.111614646252548 ], [ -71.517537710131634, 41.107076700125425 ], [ -71.528167646391864, 41.103113757408899 ], [ -71.535840607734841, 41.101663795051294 ], [ -71.543770571185462, 41.100816832272159 ], [ -71.553159529288635, 41.100078875630608 ], [ -71.565310467995531, 41.097789934705652 ], [ -71.569299448619319, 41.097181953712294 ], [ -71.593512343344429, 41.095834063512335 ], [ -71.611672278158082, 41.097413140298002 ], [ -71.618860257999586, 41.099091168630856 ], [ -71.624500245256982, 41.100979189801365 ], [ -71.63030023503913, 41.103455210627601 ], [ -71.640343221126614, 41.108433245697398 ], [ -71.649848213429053, 41.114143277471022 ], [ -71.665452213475703, 41.125821326654297 ], [ -71.668344214956065, 41.128250335496048 ], [ -71.672643230316936, 41.13429234447954 ], [ -71.676091255455717, 41.14150234774133 ], [ -71.678301286633754, 41.148904345134589 ], [ -71.678806338739577, 41.158912330145462 ], [ -71.673807466376147, 41.178850271488514 ], [ -71.672813501644143, 41.184650256470846 ], [ -71.670490564031724, 41.194503227720539 ], [ -71.667857607461912, 41.200626203877945 ], [ -71.66376765581046, 41.206605172910933 ], [ -71.654560739701083, 41.215465110838849 ], [ -71.649377805843628, 41.223986068898576 ], [ -71.643013870144344, 41.231323022775435 ], [ -71.642757906637272, 41.237934008831942 ], [ -71.642005949179293, 41.245312990847523 ], [ -71.640843978979689, 41.250100976136565 ], [ -71.634968017594858, 41.263681984844077 ], [ -71.624504066868482, 41.274128964784239 ], [ -71.609257127284465, 41.281998917594983 ], [ -71.591591192085687, 41.289316861252139 ], [ -71.570655263153341, 41.294017784303897 ], [ -71.557569305940561, 41.294017725729802 ], [ -71.535979378274618, 41.28617959423736 ], [ -71.516350451876718, 41.271548434329546 ], [ -71.49999452603636, 41.250102247748451 ], [ -71.496595504398556, 41.245822263427634 ], [ -71.492196478924313, 41.240875282842069 ], [ -71.489322449691329, 41.235170301563485 ], [ -71.486497407622579, 41.226926326273968 ], [ -71.484583359540835, 41.217485352356412 ], [ -71.485175318348183, 41.209467371549188 ], [ -71.485884293867983, 41.20472638251475 ], [ -71.489844241140503, 41.194697403230286 ], [ -71.482716200340917, 41.186252431824741 ], [ -71.4804551759037, 41.181287446265408 ], [ -71.478603148723224, 41.175791461418427 ], [ -71.476925110731131, 41.168156481405489 ] ] ] ] } }
]
}
